{"type": "FeatureCollection", "features": [ {"type": "Feature", "properties": {"norad_id": 32289, "name": "YAOGAN-3", "group": "resource", "lat": -68.2383103292426, "lon": 25.293267062921576, "alt_km": 606.7225461857506, "timestamp": "2025-12-04T09:47:37.179273+00:00", "meta": {"OBJECT_NAME": "YAOGAN-3", "OBJECT_ID": "2007-055A", "EPOCH": "2025-12-04T00:26:02.800608", "MEAN_MOTION": 14.89790462, "ECCENTRICITY": 0.00015001, "INCLINATION": 97.8373, "RA_OF_ASC_NODE": 4.7224, "ARG_OF_PERICENTER": 78.5011, "MEAN_ANOMALY": 281.6375, "EPHEMERIS_TYPE": 0, "CLASSIFICATION_TYPE": "U", "NORAD_CAT_ID": 32289, "ELEMENT_SET_NO": 999, "REV_AT_EPOCH": 97679, "BSTAR": 0.00056170028, "MEAN_MOTION_DOT": 5.335e-05, "MEAN_MOTION_DDOT": 0}, "tle": {"line1": "1 32289U 07055A   25338.01808797  .00005335  00000+0  56170-3 0  9999", "line2": "2 32289  97.8373   4.7224 0001500  78.5011 281.6375 14.89790462976790"}}, "geometry": {"type": "Point", "coordinates": [25.293267062921576, -68.2383103292426]}}, {"type": "Feature", "properties": {"norad_id": 32376, "name": "COSMO-SKYMED 2", "group": "resource", "lat": 76.61802979977784, "lon": 124.25036140727825, "alt_km": 614.2463276046647, "timestamp": "2025-12-04T09:47:37.179284+00:00", "meta": {"OBJECT_NAME": "COSMO-SKYMED 2", "OBJECT_ID": "2007-059A", "EPOCH": "2025-12-03T23:42:58.987872", "MEAN_MOTION": 14.82149719, "ECCENTRICITY": 0.0001542, "INCLINATION": 97.8806, "RA_OF_ASC_NODE": 159.4435, "ARG_OF_PERICENTER": 87.8995, "MEAN_ANOMALY": 272.2394, "EPHEMERIS_TYPE": 0, "CLASSIFICATION_TYPE": "U", "NORAD_CAT_ID": 32376, "ELEMENT_SET_NO": 999, "REV_AT_EPOCH": 97308, "BSTAR": 0.00017032371, "MEAN_MOTION_DOT": 1.304e-05, "MEAN_MOTION_DDOT": 0}, "tle": {"line1": "1 32376U 07059A   25337.98818273  .00001304  00000+0  17032-3 0  9991", "line2": "2 32376  97.8806 159.4435 0001542  87.8995 272.2394 14.82149719973082"}}, "geometry": {"type": "Point", "coordinates": [124.25036140727825, 76.61802979977784]}}, {"type": "Feature", "properties": {"norad_id": 32382, "name": "RADARSAT-2", "group": "resource", "lat": 29.183116697113775, "lon": 167.95609888481997, "alt_km": 789.9644705751634, "timestamp": "2025-12-04T09:47:37.179294+00:00", "meta": {"OBJECT_NAME": "RADARSAT-2", "OBJECT_ID": "2007-061A", "EPOCH": "2025-12-03T23:01:01.766208", "MEAN_MOTION": 14.29983957, "ECCENTRICITY": 0.00010755, "INCLINATION": 98.5799, "RA_OF_ASC_NODE": 342.6768, "ARG_OF_PERICENTER": 90.7698, "MEAN_ANOMALY": 269.3608, "EPHEMERIS_TYPE": 0, "CLASSIFICATION_TYPE": "U", "NORAD_CAT_ID": 32382, "ELEMENT_SET_NO": 999, "REV_AT_EPOCH": 93805, "BSTAR": 8.1334697e-05, "MEAN_MOTION_DOT": 1.66e-06, "MEAN_MOTION_DDOT": 0}, "tle": {"line1": "1 32382U 07061A   25337.95904822  .00000166  00000+0  81335-4 0  9997", "line2": "2 32382  98.5799 342.6768 0001075  90.7698 269.3608 14.29983957938051"}}, "geometry": {"type": "Point", "coordinates": [167.95609888481997, 29.183116697113775]}}, {"type": "Feature", "properties": {"norad_id": 32783, "name": "CARTOSAT-2A", "group": "resource", "lat": -43.96263681640618, "lon": 36.08256175148186, "alt_km": 637.2012271898357, "timestamp": "2025-12-04T09:47:37.179304+00:00", "meta": {"OBJECT_NAME": "CARTOSAT-2A", "OBJECT_ID": "2008-021A", "EPOCH": "2025-12-04T00:15:04.729824", "MEAN_MOTION": 14.78911986, "ECCENTRICITY": 0.00124518, "INCLINATION": 97.7943, "RA_OF_ASC_NODE": 28.1063, "ARG_OF_PERICENTER": 31.9563, "MEAN_ANOMALY": 328.2401, "EPHEMERIS_TYPE": 0, "CLASSIFICATION_TYPE": "U", "NORAD_CAT_ID": 32783, "ELEMENT_SET_NO": 999, "REV_AT_EPOCH": 94995, "BSTAR": 0.00024509787, "MEAN_MOTION_DOT": 1.759e-05, "MEAN_MOTION_DDOT": 0}, "tle": {"line1": "1 32783U 08021A   25338.01047141  .00001759  00000+0  24510-3 0  9999", "line2": "2 32783  97.7943  28.1063 0012451  31.9563 328.2401 14.78911986949954"}}, "geometry": {"type": "Point", "coordinates": [36.08256175148186, -43.96263681640618]}}, {"type": "Feature", "properties": {"norad_id": 33320, "name": "HUANJING 1A (HJ-1A)", "group": "resource", "lat": 47.291741688251825, "lon": -41.321155278202156, "alt_km": 600.5005609702121, "timestamp": "2025-12-04T09:47:37.179314+00:00", "meta": {"OBJECT_NAME": "HUANJING 1A (HJ-1A)", "OBJECT_ID": "2008-041A", "EPOCH": "2025-12-03T23:51:56.367360", "MEAN_MOTION": 14.83350196, "ECCENTRICITY": 0.00206181, "INCLINATION": 97.6531, "RA_OF_ASC_NODE": 326.6588, "ARG_OF_PERICENTER": 61.5697, "MEAN_ANOMALY": 298.7592, "EPHEMERIS_TYPE": 0, "CLASSIFICATION_TYPE": "U", "NORAD_CAT_ID": 33320, "ELEMENT_SET_NO": 999, "REV_AT_EPOCH": 92946, "BSTAR": 0.00037646111, "MEAN_MOTION_DOT": 3.046e-05, "MEAN_MOTION_DDOT": 0}, "tle": {"line1": "1 33320U 08041A   25337.99440240  .00003046  00000+0  37646-3 0  9997", "line2": "2 33320  97.6531 326.6588 0020618  61.5697 298.7592 14.83350196929465"}}, "geometry": {"type": "Point", "coordinates": [-41.321155278202156, 47.291741688251825]}}, {"type": "Feature", "properties": {"norad_id": 33321, "name": "HUANJING 1B (HJ-1B)", "group": "resource", "lat": -72.2317660464364, "lon": -4.464103459338011, "alt_km": 654.4956969975119, "timestamp": "2025-12-04T09:47:37.179325+00:00", "meta": {"OBJECT_NAME": "HUANJING 1B (HJ-1B)", "OBJECT_ID": "2008-041B", "EPOCH": "2025-12-03T22:47:28.831200", "MEAN_MOTION": 14.8278519, "ECCENTRICITY": 0.0038159, "INCLINATION": 97.6396, "RA_OF_ASC_NODE": 330.3357, "ARG_OF_PERICENTER": 103.5461, "MEAN_ANOMALY": 257.0009, "EPHEMERIS_TYPE": 0, "CLASSIFICATION_TYPE": "U", "NORAD_CAT_ID": 33321, "ELEMENT_SET_NO": 999, "REV_AT_EPOCH": 92947, "BSTAR": 0.00025431796, "MEAN_MOTION_DOT": 2.031e-05, "MEAN_MOTION_DDOT": 0}, "tle": {"line1": "1 33321U 08041B   25337.94963925  .00002031  00000+0  25432-3 0  9996", "line2": "2 33321  97.6396 330.3357 0038159 103.5461 257.0009 14.82785190929473"}}, "geometry": {"type": "Point", "coordinates": [-4.464103459338011, -72.2317660464364]}}, {"type": "Feature", "properties": {"norad_id": 33331, "name": "GEOEYE 1", "group": "resource", "lat": 81.78287329499578, "lon": -48.53641373629586, "alt_km": 671.8100049613568, "timestamp": "2025-12-04T09:47:37.179336+00:00", "meta": {"OBJECT_NAME": "GEOEYE 1", "OBJECT_ID": "2008-042A", "EPOCH": "2025-12-03T23:32:32.462592", "MEAN_MOTION": 14.64794112, "ECCENTRICITY": 0.00029585, "INCLINATION": 98.1263, "RA_OF_ASC_NODE": 49.3707, "ARG_OF_PERICENTER": 314.9715, "MEAN_ANOMALY": 45.1248, "EPHEMERIS_TYPE": 0, "CLASSIFICATION_TYPE": "U", "NORAD_CAT_ID": 33331, "ELEMENT_SET_NO": 999, "REV_AT_EPOCH": 92157, "BSTAR": 0.00024088805, "MEAN_MOTION_DOT": 1.237e-05, "MEAN_MOTION_DDOT": 0}, "tle": {"line1": "1 33331U 08042A   25337.98093128  .00001237  00000+0  24089-3 0  9995", "line2": "2 33331  98.1263  49.3707 0002958 314.9715  45.1248 14.64794112921575"}}, "geometry": {"type": "Point", "coordinates": [-48.53641373629586, 81.78287329499578]}}, {"type": "Feature", "properties": {"norad_id": 33396, "name": "THEOS", "group": "resource", "lat": -26.593625323287103, "lon": -147.59562946741167, "alt_km": 830.9230470348712, "timestamp": "2025-12-04T09:47:37.179347+00:00", "meta": {"OBJECT_NAME": "THEOS", "OBJECT_ID": "2008-049A", "EPOCH": "2025-12-04T05:26:27.356928", "MEAN_MOTION": 14.20093693, "ECCENTRICITY": 0.0001093, "INCLINATION": 98.588, "RA_OF_ASC_NODE": 36.5671, "ARG_OF_PERICENTER": 100.2918, "MEAN_ANOMALY": 259.8382, "EPHEMERIS_TYPE": 0, "CLASSIFICATION_TYPE": "U", "NORAD_CAT_ID": 33396, "ELEMENT_SET_NO": 999, "REV_AT_EPOCH": 89029, "BSTAR": 9.7403e-05, "MEAN_MOTION_DOT": 1.65e-06, "MEAN_MOTION_DDOT": 0}, "tle": {"line1": "1 33396U 08049A   25338.22670552  .00000165  00000+0  97403-4 0  9993", "line2": "2 33396  98.5880  36.5671 0001093 100.2918 259.8382 14.20093693890298"}}, "geometry": {"type": "Point", "coordinates": [-147.59562946741167, -26.593625323287103]}}, {"type": "Feature", "properties": {"norad_id": 33412, "name": "COSMO-SKYMED 3", "group": "resource", "lat": -79.4751600551862, "lon": -39.26467150578192, "alt_km": 552.9546402941141, "timestamp": "2025-12-04T09:47:37.179363+00:00", "meta": {"OBJECT_NAME": "COSMO-SKYMED 3", "OBJECT_ID": "2008-054A", "EPOCH": "2025-12-04T03:50:34.553760", "MEAN_MOTION": 15.05225542, "ECCENTRICITY": 0.0015497, "INCLINATION": 97.8464, "RA_OF_ASC_NODE": 188.4078, "ARG_OF_PERICENTER": 202.6252, "MEAN_ANOMALY": 157.4293, "EPHEMERIS_TYPE": 0, "CLASSIFICATION_TYPE": "U", "NORAD_CAT_ID": 33412, "ELEMENT_SET_NO": 999, "REV_AT_EPOCH": 92758, "BSTAR": 0.00067522, "MEAN_MOTION_DOT": 9.606e-05, "MEAN_MOTION_DDOT": 0}, "tle": {"line1": "1 33412U 08054A   25338.16012215  .00009606  00000+0  67522-3 0  9994", "line2": "2 33412  97.8464 188.4078 0015497 202.6252 157.4293 15.05225542927587"}}, "geometry": {"type": "Point", "coordinates": [-39.26467150578192, -79.4751600551862]}}, {"type": "Feature", "properties": {"norad_id": 33446, "name": "YAOGAN-4", "group": "resource", "lat": -21.65563931464771, "lon": 85.42211159482326, "alt_km": 635.0121778047778, "timestamp": "2025-12-04T09:47:37.179373+00:00", "meta": {"OBJECT_NAME": "YAOGAN-4", "OBJECT_ID": "2008-061A", "EPOCH": "2025-12-03T19:55:41.461536", "MEAN_MOTION": 14.82635985, "ECCENTRICITY": 0.00143425, "INCLINATION": 97.9169, "RA_OF_ASC_NODE": 268.0176, "ARG_OF_PERICENTER": 353.1456, "MEAN_ANOMALY": 6.9559, "EPHEMERIS_TYPE": 0, "CLASSIFICATION_TYPE": "U", "NORAD_CAT_ID": 33446, "ELEMENT_SET_NO": 999, "REV_AT_EPOCH": 91671, "BSTAR": 0.00033242985, "MEAN_MOTION_DOT": 2.629e-05, "MEAN_MOTION_DDOT": 0}, "tle": {"line1": "1 33446U 08061A   25337.83034099  .00002629  00000+0  33243-3 0  9997", "line2": "2 33446  97.9169 268.0176 0014342 353.1456   6.9559 14.82635985916713"}}, "geometry": {"type": "Point", "coordinates": [85.42211159482326, -21.65563931464771]}}]}